1 46612U 20061BJ  20354.47678398  .00003186  00000-0  17438-3 0  9998
2 46612  97.4630  65.6267 0007124 218.5913 141.4811 15.14943337 10286
1 46612U 20061BJ  20354.74098776  .00003343  00000-0  18278-3 0  9992
2 46612  97.4629  65.8860 0007141 217.6032 142.4702 15.14945784 10329
1 46612U 20061BJ  20355.46754735  .00003284  00000-0  17959-3 0  9995
2 46612  97.4629  66.5990 0007196 214.8161 145.2601 15.14950444 10422
1 46612U 20061BJ  20355.46754735  .00003284  00000-0  17959-3 0  9995
2 46612  97.4629  66.5990 0007196 214.8161 145.2601 15.14950444 10433
1 46612U 20061BJ  20355.79780077  .00003283  00000-0  17951-3 0  9990
2 46612  97.4628  66.9231 0007218 213.6545 146.4230 15.14952857 10488
1 46612U 20061BJ  20356.45830725  .00002912  00000-0  15960-3 0  9996
2 46612  97.4629  67.5714 0007271 211.1257 148.9546 15.14955749 10585
1 46612U 20061BJ  20356.72250901  .00003021  00000-0  16543-3 0  9998
2 46612  97.4629  67.8307 0007292 210.1936 149.8877 15.14957911 10616
1 46612U 20061BJ  20356.72250901  .00003021  00000-0  16543-3 0  9998
2 46612  97.4629  67.8307 0007292 210.1936 149.8877 15.14957911 10627
1 46612U 20061BJ  20357.44906324  .00003153  00000-0  17251-3 0  9998
2 46612  97.4629  68.5439 0007348 207.4679 152.6166 15.14962623 10737
1 46612U 20061BJ  20357.77931459  .00003136  00000-0  17157-3 0  9997
2 46612  97.4629  68.8680 0007378 206.1847 153.9013 15.14964493 10770
1 46612U 20061BJ  20358.43981626  .00003419  00000-0  18672-3 0  9999
2 46612  97.4630  69.5164 0007432 203.6687 156.4204 15.14968728 10889
1 46612U 20061BJ  20359.16636556  .00003732  00000-0  20347-3 0  9999
2 46612  97.4631  70.2295 0007498 200.9791 159.1135 15.14973857 10985
1 46612U 20061BJ  20359.82686299  .00003982  00000-0  21680-3 0  9999
2 46612  97.4631  70.8778 0007573 198.6863 161.4092 15.14977862 11095
1 46612U 20061BJ  20360.48735761  .00003837  00000-0  20902-3 0  9997
2 46612  97.4632  71.5262 0007632 196.3281 163.7706 15.14982574 11180
1 46612U 20061BJ  20360.48735761  .00003837  00000-0  20902-3 0  9997
2 46612  97.4632  71.5262 0007632 196.3281 163.7706 15.14982574 11191
1 46612U 20061BJ  20360.75155500  .00003661  00000-0  19959-3 0  9999
2 46612  97.4633  71.7855 0007660 195.3564 164.7437 15.14984223 11236
1 46612U 20061BJ  20361.47809618  .00003041  00000-0  16635-3 0  9995
2 46612  97.4633  72.4987 0007729 192.6144 167.4896 15.14988219 11340
1 46612U 20061BJ  20361.74229231  .00003149  00000-0  17216-3 0  9997
2 46612  97.4631  72.7580 0007753 191.7510 168.3542 15.14990020 11378
1 46612U 20061BJ  20361.94043935  .00003033  00000-0  16594-3 0  9994
2 46612  97.4631  72.9525 0007775 191.0149 169.0914 15.14991002 11411
1 46612U 20061BJ  20362.46883044  .00002854  00000-0  15631-3 0  9996
2 46612  97.4631  73.4712 0007824 189.2075 170.9015 15.14994264 11491
1 46612U 20061BJ  20362.79907445  .00002713  00000-0  14878-3 0  9990
2 46612  97.4629  73.7952 0007848 188.0235 172.0873 15.14996087 11533
1 46612U 20061BJ  20363.19536671  .00002635  00000-0  14460-3 0  9994
2 46612  97.4629  74.1842 0007875 186.7359 173.3769 15.14998378 11609
1 46612U 20061BJ  20363.78980388  .00002780  00000-0  15233-3 0  9997
2 46612  97.4628  74.7677 0007931 184.5818 175.5343 15.15002381 11691
1 46612U 20061BJ  20364.18609496  .00002668  00000-0  14631-3 0  9996
2 46612  97.4627  75.1567 0007967 183.2305 176.8877 15.15004215 11749
1 46612U 20061BJ  20364.45028839  .00002886  00000-0  15797-3 0  9998
2 46612  97.4626  75.4160 0007990 182.3074 177.8123 15.15006414 11792
1 46612U 20061BJ  20364.78053022  .00002870  00000-0  15709-3 0  9992
2 46612  97.4625  75.7401 0008018 181.1614 178.9601 15.15008092 11844
1 46612U 20061BJ  20365.24286768  .00002941  00000-0  16092-3 0  9994
2 46612  97.4624  76.1939 0008055 179.6224 180.5015 15.15010990 11909
1 46612U 20061BJ  20365.24286768  .00002941  00000-0  16092-3 0  9994
2 46612  97.4624  76.1939 0008055 179.6224 180.5015 15.15010990 11910
1 46612U 20061BJ  20365.83730076  .00002974  00000-0  16263-3 0  9991
2 46612  97.4622  76.7773 0008117 177.5410 182.5863 15.15014274 12006
1 46612U 20061BJ  20366.23358843  .00003194  00000-0  17438-3 0  9994
2 46612  97.4620  77.1662 0008157 176.1871 183.9425 15.15017290 12062
1 46612U 20061BJ  20366.62987569  .00003065  00000-0  16751-3 0  9994
2 46612  97.4619  77.5551 0008206 174.8657 185.2661 15.15019170 12115
1 46612U 20061BJ  20366.62987569  .00003065  00000-0  16751-3 0  9994
2 46612  97.4619  77.5551 0008206 174.8657 185.2661 15.15019170 12126
1 46612U 20061BJ  21001.48849583  .00002932  00000-0  16033-3 0  9993
2 46612  97.4617  78.3978 0008283 172.0285 188.1080 15.15023730 12256
1 46612U 20061BJ  21001.75268604  .00002836  00000-0  15520-3 0  9995
2 46612  97.4615  78.6570 0008314 171.1477 188.9903 15.15025069 12285
1 46612U 20061BJ  21001.75268604  .00002836  00000-0  15520-3 0  9995
2 46612  97.4615  78.6570 0008314 171.1477 188.9903 15.15025069 12296
1 46612U 20061BJ  21002.28106572  .00002713  00000-0  14863-3 0  9992
2 46612  97.4614  79.1756 0008360 169.4516 190.6894 15.15027820 12377
1 46612U 20061BJ  21002.87549183  .00002437  00000-0  13383-3 0  9995
2 46612  97.4612  79.7589 0008414 167.5464 192.5978 15.15030357 12469
1 46612U 20061BJ  21003.20572799  .00002337  00000-0  12850-3 0  9999
2 46612  97.4611  80.0830 0008444 166.5166 193.6293 15.15031973 12505
1 46612U 20061BJ  21003.40386968  .00002147  00000-0  11832-3 0  9990
2 46612  97.4612  80.2775 0008456 165.9110 194.2359 15.15032364 12540
1 46612U 20061BJ  21003.86619971  .00001981  00000-0  10946-3 0  9993
2 46612  97.4611  80.7312 0008495 164.4004 195.7491 15.15034187 12616
1 46612U 20061BJ  21004.46062350  .00001763  00000-0  97784-4 0  9997
2 46612  97.4611  81.3145 0008546 162.4897 197.6632 15.15036124 12691
1 46612U 20061BJ  21004.46062350  .00001763  00000-0  97784-4 0  9997
2 46612  97.4611  81.3145 0008546 162.4897 197.6632 15.15036124 12703
1 46612U 20061BJ  21005.45132888  .00002239  00000-0  12320-3 0  9992
2 46612  97.4614  82.2870 0008582 159.3873 200.7707 15.15041069 12859
1 46612U 20061BJ  21005.78156307  .00002182  00000-0  12019-3 0  9992
2 46612  97.4614  82.6110 0008609 158.3513 201.8084 15.15042295 12896
1 46612U 20061BJ  21005.84760920  .00002300  00000-0  12648-3 0  9991
2 46612  97.4614  82.6759 0008614 158.1596 202.0005 15.15043421 12911
1 46612U 20061BJ  21006.44202981  .00002463  00000-0  13518-3 0  9993
2 46612  97.4612  83.2592 0008695 156.1583 204.0054 15.15045721 13006
1 46612U 20061BJ  21006.90435656  .00002552  00000-0  13991-3 0  9995
2 46612  97.4612  83.7129 0008735 154.6356 205.5306 15.15047661 13071
1 46612U 20061BJ  21007.16854270  .00002696  00000-0  14760-3 0  9995
2 46612  97.4612  83.9722 0008757 153.8165 206.3512 15.15049298 13105
1 46612U 20061BJ  21007.16854270  .00002696  00000-0  14760-3 0  9995
2 46612  97.4612  83.9722 0008757 153.8165 206.3512 15.15049298 13116
1 46612U 20061BJ  21007.76296129  .00002447  00000-0  13431-3 0  9992
2 46612  97.4613  84.5556 0008816 151.9512 208.2197 15.15050964 13202
1 46612U 20061BJ  21008.48947132  .00002346  00000-0  12890-3 0  9995
2 46612  97.4613  85.2687 0008878 149.7317 210.4430 15.15053804 13303
1 46612U 20061BJ  21008.48947132  .00002346  00000-0  12890-3 0  9995
2 46612  97.4613  85.2687 0008878 149.7317 210.4430 15.15053804 13314
1 46612U 20061BJ  21008.81970279  .00002160  00000-0  11897-3 0  9990
2 46612  97.4613  85.5928 0008905 148.7018 211.4746 15.15054674 13365
1 46612U 20061BJ  21009.48016444  .00002037  00000-0  11238-3 0  9991
2 46612  97.4613  86.2410 0008954 146.7464 213.4332 15.15057310 13460
1 46612U 20061BJ  21009.74434880  .00001952  00000-0  10782-3 0  9996
2 46612  97.4613  86.5003 0008966 145.9535 214.2274 15.15058274 13491
1 46612U 20061BJ  21009.74434880  .00001952  00000-0  10782-3 0  9996
2 46612  97.4613  86.5003 0008966 145.9535 214.2274 15.15058274 13503
1 46612U 20061BJ  21010.47085556  .00001787  00000-0  98992-4 0  9996
2 46612  97.4609  87.2131 0008973 143.6399 216.5444 15.15059887 13616
1 46612U 20061BJ  21010.73503920  .00001825  00000-0  10104-3 0  9996
2 46612  97.4608  87.4724 0008990 142.8356 217.3500 15.15061214 13651
1 46612U 20061BJ  21011.46154389  .00001798  00000-0  99592-4 0  9996
2 46612  97.4607  88.1853 0009040 140.6303 219.5588 15.15063885 13764
1 46612U 20061BJ  21011.79177283  .00001748  00000-0  96870-4 0  9991
2 46612  97.4606  88.5094 0009055 139.6684 220.5222 15.15064981 13800
1 46612U 20061BJ  21011.85781762  .00001939  00000-0  10711-3 0  9992
2 46612  97.4606  88.5742 0009061 139.4476 220.7432 15.15066569 13825
1 46612U 20061BJ  21012.45222782  .00002200  00000-0  12104-3 0  9991
2 46612  97.4605  89.1575 0009104 137.6357 222.5579 15.15070613 13918
1 46612U 20061BJ  21012.84850226  .00001900  00000-0  10502-3 0  9990
2 46612  97.4605  89.5464 0009125 136.4883 223.7071 15.15070343 13979
1 46612U 20061BJ  21013.17872982  .00001899  00000-0  10495-3 0  9998
2 46612  97.4604  89.8705 0009139 135.5053 224.6915 15.15071663 14012
1 46612U 20061BJ  21013.44291187  .00001872  00000-0  10347-3 0  9997
2 46612  97.4604  90.1297 0009161 134.7134 225.4845 15.15072493 14067
1 46612U 20061BJ  21013.70709362  .00001865  00000-0  10314-3 0  9991
2 46612  97.4603  90.3890 0009172 133.9255 226.2736 15.15073484 14108
1 46612U 20061BJ  21014.16941108  .00001847  00000-0  10215-3 0  9998
2 46612  97.4602  90.8427 0009193 132.5331 227.6679 15.15075213 14171
1 46612U 20061BJ  21014.76381909  .00001733  00000-0  96060-4 0  9998
2 46612  97.4601  91.4260 0009225 130.7562 229.4472 15.15076785 14259
1 46612U 20061BJ  21014.76381909  .00001733  00000-0  96060-4 0  9998
2 46612  97.4601  91.4260 0009225 130.7562 229.4472 15.15076785 14260
1 46612U 20061BJ  21015.49031630  .00001700  00000-0  94271-4 0  9998
2 46612  97.4600  92.1389 0009252 128.5950 231.6113 15.15079251 14375
1 46612U 20061BJ  21016.15076729  .00001604  00000-0  89135-4 0  9996
2 46612  97.4598  92.7870 0009299 126.6105 233.5984 15.15081136 14466
